[{"OBJECT_NAME":"STARLINK-5665","OBJECT_ID":"2023-013AG","EPOCH":"2026-03-09T22:00:01.999584","MEAN_MOTION":15.07502905,"ECCENTRICITY":0.00013904,"INCLINATION":42.9992,"RA_OF_ASC_NODE":285.8236,"ARG_OF_PERICENTER":295.8036,"MEAN_ANOMALY":172.8657,"EPHEMERIS_TYPE":0,"CLASSIFICATION_TYPE":"U","NORAD_CAT_ID":55361,"ELEMENT_SET_NO":999,"REV_AT_EPOCH":578,"BSTAR":0.0026721274,"MEAN_MOTION_DOT":0.00041277,"MEAN_MOTION_DDOT":0},{"OBJECT_NAME":"CP5","OBJECT_ID":"2012-048F","EPOCH":"2026-03-09T13:13:18.209280","MEAN_MOTION":15.25131456,"ECCENTRICITY":0.0097184,"INCLINATION":64.6452,"RA_OF_ASC_NODE":121.238,"ARG_OF_PERICENTER":206.221,"MEAN_ANOMALY":153.3981,"EPHEMERIS_TYPE":0,"CLASSIFICATION_TYPE":"U","NORAD_CAT_ID":38763,"ELEMENT_SET_NO":999,"REV_AT_EPOCH":10155,"BSTAR":0.00057686,"MEAN_MOTION_DOT":0.00016437,"MEAN_MOTION_DDOT":0}]
